{
  "type": "FeatureCollection",
  "features": [
    {
      "type": "Feature",
      "properties": {
        "norad_id": 59600,
        "name": "GSAT0227 (GALILEO 30)",
        "group": "gnss",
        "lat": -12.629072700780135,
        "lon": 97.09102426593167,
        "alt_km": 23229.842155316634,
        "timestamp": "2025-12-18T21:31:51.244004+00:00",
        "meta_object_name": "GSAT0227 (GALILEO 30)",
        "meta_object_id": "2024-079C",
        "meta_epoch": "2025-12-17T17:58:49.656576",
        "meta_mean_motion": 1.70474875,
        "meta_eccentricity": 0.00029873,
        "meta_inclination": 54.9997,
        "meta_ra_of_asc_node": 106.1542,
        "meta_arg_of_pericenter": 116.3364,
        "meta_mean_anomaly": 243.6531,
        "meta_ephemeris_type": 0,
        "meta_classification_type": "U",
        "meta_norad_cat_id": 59600,
        "meta_element_set_no": 999,
        "meta_rev_at_epoch": 1027,
        "meta_bstar": 0,
        "meta_mean_motion_dot": -9e-08,
        "meta_mean_motion_ddot": 0,
        "tle_line1": "1 59600U 24079C   25351.74918584 -.00000009  00000+0  00000+0 0  9992",
        "tle_line2": "2 59600  54.9997 106.1542 0002987 116.3364 243.6531  1.70474875 10271"
      },
      "geometry": {
        "type": "Point",
        "coordinates": [
          97.09102426593167,
          -12.629072700780135
        ]
      }
    },
    {
      "type": "Feature",
      "properties": {
        "norad_id": 61182,
        "name": "GSAT0232 (GALILEO 32)",
        "group": "gnss",
        "lat": 0.864474853861185,
        "lon": 45.674690618510176,
        "alt_km": 23217.55078022378,
        "timestamp": "2025-12-18T21:31:51.244016+00:00",
        "meta_object_name": "GSAT0232 (GALILEO 32)",
        "meta_object_id": "2024-167A",
        "meta_epoch": "2025-12-18T07:28:16.745952",
        "meta_mean_motion": 1.70473695,
        "meta_eccentricity": 0.00018931,
        "meta_inclination": 55.2391,
        "meta_ra_of_asc_node": 226.278,
        "meta_arg_of_pericenter": 209.6785,
        "meta_mean_anomaly": 329.812,
        "meta_ephemeris_type": 0,
        "meta_classification_type": "U",
        "meta_norad_cat_id": 61182,
        "meta_element_set_no": 999,
        "meta_rev_at_epoch": 779,
        "meta_bstar": 0,
        "meta_mean_motion_dot": 6.2e-07,
        "meta_mean_motion_ddot": 0,
        "tle_line1": "1 61182U 24167A   25352.31130493  .00000062  00000+0  00000+0 0  9995",
        "tle_line2": "2 61182  55.2391 226.2780 0001893 209.6785 329.8120  1.70473695  7790"
      },
      "geometry": {
        "type": "Point",
        "coordinates": [
          45.674690618510176,
          0.864474853861185
        ]
      }
    },
    {
      "type": "Feature",
      "properties": {
        "norad_id": 61183,
        "name": "GSAT0226 (GALILEO 31)",
        "group": "gnss",
        "lat": -49.81187117785191,
        "lon": 171.0371673971754,
        "alt_km": 23230.574721410132,
        "timestamp": "2025-12-18T21:31:51.244031+00:00",
        "meta_object_name": "GSAT0226 (GALILEO 31)",
        "meta_object_id": "2024-167B",
        "meta_epoch": "2025-12-17T12:20:03.342912",
        "meta_mean_motion": 1.70473772,
        "meta_eccentricity": 9.56e-05,
        "meta_inclination": 55.2379,
        "meta_ra_of_asc_node": 226.3053,
        "meta_arg_of_pericenter": 107.5101,
        "meta_mean_anomaly": 55.2715,
        "meta_ephemeris_type": 0,
        "meta_classification_type": "U",
        "meta_norad_cat_id": 61183,
        "meta_element_set_no": 999,
        "meta_rev_at_epoch": 775,
        "meta_bstar": 0,
        "meta_mean_motion_dot": 5.7e-07,
        "meta_mean_motion_ddot": 0,
        "tle_line1": "1 61183U 24167B   25351.51392758  .00000057  00000+0  00000+0 0  9995",
        "tle_line2": "2 61183  55.2379 226.3053 0000956 107.5101  55.2715  1.70473772  7750"
      },
      "geometry": {
        "type": "Point",
        "coordinates": [
          171.0371673971754,
          -49.81187117785191
        ]
      }
    },
    {
      "type": "Feature",
      "properties": {
        "norad_id": 61186,
        "name": "BEIDOU-3 M25 (C47)",
        "group": "gnss",
        "lat": -54.04873835001641,
        "lon": -153.45406276008725,
        "alt_km": 21521.6213273874,
        "timestamp": "2025-12-18T21:31:51.244044+00:00",
        "meta_object_name": "BEIDOU-3 M25 (C47)",
        "meta_object_id": "2024-168B",
        "meta_epoch": "2025-12-18T00:39:01.420992",
        "meta_mean_motion": 1.86230296,
        "meta_eccentricity": 0.00054425,
        "meta_inclination": 54.6373,
        "meta_ra_of_asc_node": 308.537,
        "meta_arg_of_pericenter": 299.044,
        "meta_mean_anomaly": 100.6746,
        "meta_ephemeris_type": 0,
        "meta_classification_type": "U",
        "meta_norad_cat_id": 61186,
        "meta_element_set_no": 999,
        "meta_rev_at_epoch": 841,
        "meta_bstar": 0,
        "meta_mean_motion_dot": -8.7e-07,
        "meta_mean_motion_ddot": 0,
        "tle_line1": "1 61186U 24168B   25352.02709978 -.00000087  00000+0  00000+0 0  9996",
        "tle_line2": "2 61186  54.6373 308.5370 0005442 299.0440 100.6746  1.86230296  8415"
      },
      "geometry": {
        "type": "Point",
        "coordinates": [
          -153.45406276008725,
          -54.04873835001641
        ]
      }
    },
    {
      "type": "Feature",
      "properties": {
        "norad_id": 61187,
        "name": "BEIDOU-3 M27 (C49)",
        "group": "gnss",
        "lat": 30.144959429225892,
        "lon": -27.195042148355142,
        "alt_km": 21520.846757944768,
        "timestamp": "2025-12-18T21:31:51.244056+00:00",
        "meta_object_name": "BEIDOU-3 M27 (C49)",
        "meta_object_id": "2024-168C",
        "meta_epoch": "2025-12-17T09:44:22.026336",
        "meta_mean_motion": 1.86230445,
        "meta_eccentricity": 0.00024936,
        "meta_inclination": 54.6333,
        "meta_ra_of_asc_node": 308.542,
        "meta_arg_of_pericenter": 338.9889,
        "meta_mean_anomaly": 139.133,
        "meta_ephemeris_type": 0,
        "meta_classification_type": "U",
        "meta_norad_cat_id": 61187,
        "meta_element_set_no": 999,
        "meta_rev_at_epoch": 587,
        "meta_bstar": 0,
        "meta_mean_motion_dot": -9.1e-07,
        "meta_mean_motion_ddot": 0,
        "tle_line1": "1 61187U 24168C   25351.40581049 -.00000091  00000+0  00000+0 0  9990",
        "tle_line2": "2 61187  54.6333 308.5420 0002493 338.9889 139.1330  1.86230445  5870"
      },
      "geometry": {
        "type": "Point",
        "coordinates": [
          -27.195042148355142,
          30.144959429225892
        ]
      }
    },
    {
      "type": "Feature",
      "properties": {
        "norad_id": 62339,
        "name": "GPS BIII-7  (PRN 01)",
        "group": "gnss",
        "lat": 21.585727204310473,
        "lon": -2.376958243908704,
        "alt_km": 20154.256836112752,
        "timestamp": "2025-12-18T21:31:51.244067+00:00",
        "meta_object_name": "GPS BIII-7  (PRN 01)",
        "meta_object_id": "2024-242A",
        "meta_epoch": "2025-12-18T02:37:38.581248",
        "meta_mean_motion": 2.00568178,
        "meta_eccentricity": 0.00125014,
        "meta_inclination": 54.9221,
        "meta_ra_of_asc_node": 341.5227,
        "meta_arg_of_pericenter": 345.673,
        "meta_mean_anomaly": 192.2282,
        "meta_ephemeris_type": 0,
        "meta_classification_type": "U",
        "meta_norad_cat_id": 62339,
        "meta_element_set_no": 999,
        "meta_rev_at_epoch": 762,
        "meta_bstar": 0,
        "meta_mean_motion_dot": -8.6e-07,
        "meta_mean_motion_ddot": 0,
        "tle_line1": "1 62339U 24242A   25352.10947432 -.00000086  00000+0  00000+0 0  9997",
        "tle_line2": "2 62339  54.9221 341.5227 0012501 345.6730 192.2282  2.00568178  7627"
      },
      "geometry": {
        "type": "Point",
        "coordinates": [
          -2.376958243908704,
          21.585727204310473
        ]
      }
    },
    {
      "type": "Feature",
      "properties": {
        "norad_id": 62850,
        "name": "NVS-02 (IRNSS-1K)",
        "group": "gnss",
        "lat": -18.33001298595101,
        "lon": -154.77484855719433,
        "alt_km": 24802.68517813009,
        "timestamp": "2025-12-18T21:31:51.244079+00:00",
        "meta_object_name": "NVS-02 (IRNSS-1K)",
        "meta_object_id": "2025-020A",
        "meta_epoch": "2025-12-18T01:29:52.441728",
        "meta_mean_motion": 2.17599272,
        "meta_eccentricity": 0.73474385,
        "meta_inclination": 20.9702,
        "meta_ra_of_asc_node": 325.733,
        "meta_arg_of_pericenter": 29.685,
        "meta_mean_anomaly": 356.832,
        "meta_ephemeris_type": 0,
        "meta_classification_type": "U",
        "meta_norad_cat_id": 62850,
        "meta_element_set_no": 999,
        "meta_rev_at_epoch": 703,
        "meta_bstar": 0.00017861505,
        "meta_mean_motion_dot": 3.61e-06,
        "meta_mean_motion_ddot": 0,
        "tle_line1": "1 62850U 25020A   25352.06241252  .00000361  00000+0  17862-3 0  9995",
        "tle_line2": "2 62850  20.9702 325.7330 7347438  29.6850 356.8320  2.17599272  7033"
      },
      "geometry": {
        "type": "Point",
        "coordinates": [
          -154.77484855719433,
          -18.33001298595101
        ]
      }
    }
  ]
}